{"fetched_at":"2026-03-29T02:12:04Z","count":15717,"tles":[{"name":"ASBM-1","line1":"1 60422U 24143A   26081.41163157 -.00000012  00000+0  00000+0 0  9995","line2":"2 60422  62.7942  48.8715 5575339 269.1431  30.1690  1.50423904 10314","category":"Other"}]}